{
    "links": {
        "self": "http://www.neowsapp.com/rest/v1/neo/3744692?api_key=iIulBulltgU6a56xZRHN4H3l9WmuAYTsLGpBGhQ2"
    },
    "id": "3744692",
    "neo_reference_id": "3744692",
    "name": "(2016 DG)",
    "designation": "2016 DG",
    "nasa_jpl_url": "http://ssd.jpl.nasa.gov/sbdb.cgi?sstr=3744692",
    "absolute_magnitude_h": 27.7,
    "estimated_diameter": {
        "kilometers": {
            "estimated_diameter_min": 0.0076657557,
            "estimated_diameter_max": 0.0171411509
        },
        "meters": {
            "estimated_diameter_min": 7.6657557353,
            "estimated_diameter_max": 17.1411509231
        },
        "miles": {
            "estimated_diameter_min": 0.0047632783,
            "estimated_diameter_max": 0.0106510141
        },
        "feet": {
            "estimated_diameter_min": 25.1501180466,
            "estimated_diameter_max": 56.2373735944
        }
    },
    "is_potentially_hazardous_asteroid": false,
    "close_approach_data": [
        {
            "close_approach_date": "2014-03-15",
            "close_approach_date_full": "2014-Mar-15 22:57",
            "epoch_date_close_approach": 1394924220000,
            "relative_velocity": {
                "kilometers_per_second": "16.7024318448",
                "kilometers_per_hour": "60128.7546411014",
                "miles_per_hour": "37361.6697935222"
            },
            "miss_distance": {
                "astronomical": "0.34798772",
                "lunar": "135.36722308",
                "kilometers": "52058221.6981564",
                "miles": "32347478.99070232"
            },
            "orbiting_body": "Earth"
        },
        {
            "close_approach_date": "2016-02-14",
            "close_approach_date_full": "2016-Feb-14 03:25",
            "epoch_date_close_approach": 1455420300000,
            "relative_velocity": {
                "kilometers_per_second": "7.8914958901",
                "kilometers_per_hour": "28409.3852044946",
                "miles_per_hour": "17652.4871566484"
            },
            "miss_distance": {
                "astronomical": "0.0175420758",
                "lunar": "6.8238674862",
                "kilometers": "2624257.175058546",
                "miles": "1630637.7949020948"
            },
            "orbiting_body": "Earth"
        },
        {
            "close_approach_date": "2017-12-15",
            "close_approach_date_full": "2017-Dec-15 11:45",
            "epoch_date_close_approach": 1513338300000,
            "relative_velocity": {
                "kilometers_per_second": "11.3356388675",
                "kilometers_per_hour": "40808.299923148",
                "miles_per_hour": "25356.6905828027"
            },
            "miss_distance": {
                "astronomical": "0.2400908297",
                "lunar": "93.3953327533",
                "kilometers": "35917076.729652739",
                "miles": "22317836.5879722382"
            },
            "orbiting_body": "Earth"
        },
        {
            "close_approach_date": "2058-11-27",
            "close_approach_date_full": "2058-Nov-27 12:07",
            "epoch_date_close_approach": 2805624420000,
            "relative_velocity": {
                "kilometers_per_second": "18.1512454577",
                "kilometers_per_hour": "65344.4836478377",
                "miles_per_hour": "40602.5209644023"
            },
            "miss_distance": {
                "astronomical": "0.444449417",
                "lunar": "172.890823213",
                "kilometers": "66488686.10594179",
                "miles": "41314153.783465102"
            },
            "orbiting_body": "Earth"
        }
    ],
    "orbital_data": {
        "orbit_id": "3",
        "orbit_determination_date": "2017-04-06 08:28:08",
        "first_observation_date": "2016-02-16",
        "last_observation_date": "2016-02-18",
        "data_arc_in_days": 2,
        "observations_used": 30,
        "orbit_uncertainty": "7",
        "minimum_orbit_intersection": ".0153176",
        "jupiter_tisserand_invariant": "4.336",
        "epoch_osculation": "2459000.5",
        "eccentricity": ".3726357942463688",
        "semi_major_axis": "1.560950432989439",
        "inclination": "9.674798779626252",
        "ascending_node_longitude": "145.8588821713854",
        "orbital_period": "712.3314113739136",
        "perihelion_distance": ".979284428613206",
        "perihelion_argument": "334.5655359973529",
        "aphelion_distance": "2.142616437365672",
        "perihelion_time": "2458837.427870889879",
        "mean_anomaly": "82.41383932011924",
        "mean_motion": ".5053827393426997",
        "equinox": "J2000",
        "orbit_class": {
            "orbit_class_type": "APO",
            "orbit_class_description": "Near-Earth asteroid orbits which cross the Earth’s orbit similar to that of 1862 Apollo",
            "orbit_class_range": "a (semi-major axis) > 1.0 AU; q (perihelion) < 1.017 AU"
        }
    },
    "is_sentry_object": false
}